STARLINK-3137_new
1 19449C 21104AT  21326.07818703 -.00871628  00000-0 -31521-2 0  3268
2 19449  53.2178  91.1578 0026666  65.4540 208.1955 15.88129596    14
STARLINK-3137_old
1 29449C 21104AT  21325.18925061 -.00816642  00000-0 -26808-2 0  3251
2 29449  53.2175  95.6597 0033555  63.7752 162.1908 15.89621048    19
